ZHUHAI-1 02 (CAS-4B)    
1 42759U 17034B   23150.21708988  .00005334  00000+0  27508-3 0  9995
2 42759  43.0150 215.5649 0011204 339.5324  20.5074 15.17152311328908
ZHUHAI-1 01 (CAS-4A)    
1 42761U 17034D   23150.16742112  .00005603  00000+0  28827-3 0  9993
2 42761  43.0139 214.3729 0011910 341.6119  18.4297 15.17156413328904
MAX VALIER SAT          
1 42778U 17036P   23150.08448356  .00018342  00000+0  49103-3 0  9991
2 42778  97.1573 185.3649 0009773 154.5409 205.6320 15.38027971329940
RADFXSAT (FOX-1B)       
1 43017U 17073E   23149.93777398  .00005094  00000+0  35726-3 0  9998
2 43017  97.6335  35.0001 0235445 129.3045 232.9309 14.85825226298477
FOX-1D (AO-92)          
1 43137U 18004AC  23149.74527718  .00027919  00000+0  59596-3 0  9995
2 43137  97.3289 228.7539 0006134 191.6657 168.4451 15.44821334299467
DIWATA-2B               
1 43678U 18084H   23150.16505055  .00001234  00000+0  12330-3 0  9998
2 43678  98.0206 293.7748 0008758 214.5076 145.5575 14.93370463249577
ES'HAIL 2               
1 43700U 18090A   23149.90118703  .00000160  00000+0  00000+0 0  9995
2 43700   0.0178 286.2391 0001611 173.6986 137.4621  1.00273873 16509
FOX-1CLIFF (AO-95)      
1 43770U 18099N   23149.67743294  .00003427  00000+0  28225-3 0  9996
2 43770  97.5751 211.7177 0011857 189.2868 170.8139 14.99671037244834
ITASAT 1                
1 43786U 18099AE  23150.14294396  .00002904  00000+0  24170-3 0  9995
2 43786  97.5793 213.2026 0013132 175.2320 184.9031 14.99376674244941
JY1SAT (JO-97)          
1 43803U 18099AX  23150.11298382  .00004847  00000+0  38729-3 0  9994
2 43803  97.5694 213.1475 0013305 151.5636 208.6317 15.00630751244984
UWE-4                   
1 43880U 18111E   23149.70444908  .00004189  00000+0  32351-3 0  9998
2 43880  97.6323  55.1796 0016515 233.2790 126.6918 15.01978067241590
NEXUS (FO-99)           
1 43937U 19003F   23150.04697755  .00044631  00000+0  76441-3 0  9995
2 43937  97.0880 177.5013 0010440 352.0486   8.0599 15.51043162243234
JAISAT-1                
1 44419U 19038F   23150.17405765  .00019039  00000+0  66582-3 0  9990
2 44419  97.6727 131.3075 0015028  16.1818 343.9898 15.29478458215783
DUCHIFAT-3              
1 44854U 19089C   23150.17430995  .00005242  00000+0  35781-3 0  9990
2 44854  36.9610 198.9179 0009184 176.3206 183.7606 15.05985327190122
CAS-6 (TIANQIN 1)       
1 44881U 19093C   23150.20833889  .00000866  00000+0  11417-3 0  9995
2 44881  97.8615 228.9655 0015834 133.3944 226.8590 14.82497038186135
RS-44 & BREEZE-KM R/B   
1 44909U 19096E   23149.84951005  .00000018  00000+0  33767-4 0  9990
2 44909  82.5228   0.1338 0216573 229.6827 128.5176 12.79720775159811
BY70-2                  
1 45857U 20042B   23150.21420949  .00013410  00000+0  13997-2 0  9998
2 45857  97.9251 230.0598 0009491  76.0684 284.1589 14.89816341156863
SALSAT                  
1 46495U 20068K   23149.80272033  .00004258  00000+0  28357-3 0  9994
2 46495  97.7687  97.6144 0015605 176.5190 183.6149 15.07574491146300
RADFXSAT-2 (AO-109)     
1 47311U 21002C   23149.91670971  .00019501  00000+0  52082-3 0  9995
2 47311  60.6794 128.7297 0015121 165.5523 194.6007 15.38087997131473
UVSQ-SAT                
1 47438U 21006AB  23149.91076878  .00012848  00000+0  53429-3 0  9998
2 47438  97.3857 207.2866 0011359 141.6831 218.5216 15.23855081129860
DIY-1 (ARDUIQUBE)       
1 47963U 21022AH  23149.69717445  .00156400  00000+0  23162-2 0  9999
2 47963  97.4977  57.3566 0007118  59.9720 300.2239 15.54695908119715
XW-3 (CAS-9)            
1 50466U 21131B   23150.22918826  .00000555  00000+0  19470-3 0  9996
2 50466  98.5515 231.8299 0004347 177.1692 182.9520 14.38899130 74779
TEVEL-3                 
1 50988U 22002E   23150.13190827  .00015762  00000+0  64427-3 0  9994
2 50988  97.4343 217.2285 0006125 297.3641  62.6973 15.24431535 76015
TEVEL-8                 
1 50989U 22002F   23150.08423510  .00015367  00000+0  62950-3 0  9997
2 50989  97.4356 217.2387 0006146 296.1775  63.8830 15.24363997 76001
TEVEL-5                 
1 50998U 22002Q   23150.15170519  .00015098  00000+0  60273-3 0  9990
2 50998  97.4335 217.6110 0007313 290.1177  69.9274 15.25228312 76048
TEVEL-6                 
1 50999U 22002R   23150.15022839  .00015100  00000+0  60283-3 0  9997
2 50999  97.4333 217.6045 0007324 289.9720  70.0728 15.25227783 76044
TEVEL-1                 
1 51013U 22002AF  23150.14117184  .00015761  00000+0  64510-3 0  9992
2 51013  97.4336 217.1835 0006062 296.6279  63.4337 15.24386896 76018
TEVEL-7                 
1 51062U 22002CG  23150.15107704  .00014339  00000+0  58738-3 0  9999
2 51062  97.4353 217.2786 0006125 295.2790  64.7812 15.24381344 76015
TEVEL-4                 
1 51063U 22002CH  23150.15655893  .00014000  00000+0  57439-3 0  9999
2 51063  97.4353 217.2691 0006116 295.6485  64.4120 15.24332927 76018
TEVEL-2                 
1 51069U 22002CP  23150.13375761  .00015988  00000+0  65345-3 0  9997
2 51069  97.4338 217.2024 0006075 296.7556  63.3059 15.24432372 76016
GREENCUBE               
1 53106U 22080B   23149.84195747 -.00000003  00000+0  00000+0 0  9993
2 53106  70.1621 326.0976 0008371 189.0727 170.9782  6.42557054 20576
RS29S (SXC3-2110 CYCLO*)
1 53373U 22096D   23150.05604974  .00024777  00000+0  66531-3 0  9996
2 53373  97.4154  56.1563 0002432 112.6478 247.5024 15.37924095 44905
RS32S (SXC3-212 MONITO*)
1 53374U 22096E   23150.08061410  .00024147  00000+0  66510-3 0  9990
2 53374  97.4134  56.0874 0002646 124.0631 236.0865 15.37138192 44904
RS34S (SXC3-218 KUZBAS*)
1 53375U 22096F   23150.14479899  .00018787  00000+0  54889-3 0  9991
2 53375  97.4159  55.8887 0002575 120.5270 239.6228 15.35345172 44890
RS23S (SXC3-21 UTMN)    
1 53376U 22096G   23150.17338108  .00018762  00000+0  53939-3 0  9990
2 53376  97.4154  55.9972 0002393 114.9273 245.2219 15.35852597 44909
RS28S (SXC3-214 MIET-A*)
1 53377U 22096H   23150.08483843  .00017925  00000+0  52964-3 0  9995
2 53377  97.4164  55.8222 0002461 123.2463 236.9016 15.35000202 44885
RS26S (KAI-1)           
1 53378U 22096J   23150.10729785  .00014971  00000+0  46213-3 0  9995
2 53378  97.4177  55.6523 0002543 120.0500 240.0995 15.33652473 44872
RS19S (SXC3-219 ISOI)   
1 53381U 22096M   23150.10712044  .00017116  00000+0  49348-3 0  9995
2 53381  97.4153  56.0812 0005486 112.2294 247.9532 15.35770830 44905
RS21S (CUBESX-HSE-2)    
1 53383U 22096P   23150.08486134  .00019896  00000+0  56573-3 0  9997
2 53383  97.4157  56.1211 0005982 113.6789 246.5083 15.36170402 44906
RS30S (SXC3-217 SIREN)  
1 53384U 22096Q   23150.16457682  .00013514  00000+0  40280-3 0  9992
2 53384  97.4169  56.0258 0006002 111.1363 249.0522 15.34773561 44904
RS20S (GEOSCAN-EDELVEIS)
1 53385U 22096R   23150.10560138  .00026921  00000+0  68778-3 0  9996
2 53385  97.4148  56.6833 0006392 112.0814 248.1111 15.39421965 44974
RS33S (SXC3-215 VIZARD) 
1 53386U 22096S   23150.06137179  .00034452  00000+0  78730-3 0  9994
2 53386  97.4144  57.1965 0007122 111.4051 248.7957 15.42745165 44992
CAS-5A (FO-118)         
1 54684U 22167C   23150.09718973  .00008761  00000+0  48980-3 0  9993
2 54684  97.5596 287.8075 0014055  42.8281 317.4043 15.13641226 25940
